STARLINK-4469
1 53657U 22105K   26060.69914131  .00033439  00000+0  18399-3 0  9998
2 53657  97.6294 325.4881 0001801 120.5480 239.5964 15.79669999193434
